NORAD_CAT_ID,OBJECT_NAME,OBJECT_TYPE,EPOCH,MEAN_MOTION,ECCENTRICITY,INCLINATION,RA_OF_ASC_NODE,ARG_OF_PERICENTER,MEAN_ANOMALY,BSTAR,MEAN_MOTION_DOT,MEAN_MOTION_DDOT,TLE_LINE0,TLE_LINE1,TLE_LINE2,SEMIMAJOR_AXIS,PERIOD,APOGEE,PERIGEE,DECAYED
53801.0,STARLINK-4715,PAYLOAD,2023-10-26 20:23:21,15.07212745,0.0001716,53.2163,186.6219,87.2413,272.8775,0.00018863,2.589e-05,0.0,0 STARLINK-4715,1 53801U 22111AE  23299.84955872  .00002589  00000-0  18863-3 0  9990,2 53801  53.2163 186.6219 0001716  87.2413 272.8775 15.07212745 63250,6922.859,95.541,545.912,543.536,0.0
53801.0,STARLINK-4715,PAYLOAD,2023-10-26 23:34:20,15.07191966,0.0001964,53.2166,186.0308,87.7672,272.3544,-0.00044646,-7.071e-05,0.0,0 STARLINK-4715,1 53801U 22111AE  23299.98218060 -.00007071  00000-0 -44646-3 0  9997,2 53801  53.2166 186.0308 0001964  87.7672 272.3544 15.07191966 62465,6922.922,95.542,546.147,543.428,0.0
53801.0,STARLINK-4715,PAYLOAD,2023-10-27 09:07:16,15.07216565,0.0001671,53.2167,184.2482,85.5262,274.592,0.00022007,3.069e-05,0.0,0 STARLINK-4715,1 53801U 22111AE  23300.38004824  .00003069  00000-0  22007-3 0  9993,2 53801  53.2167 184.2482 0001671  85.5262 274.5920 15.07216565 62527,6922.847,95.54,545.869,543.555,0.0
53801.0,STARLINK-4715,PAYLOAD,2023-10-27 17:04:43,15.07199248,0.0001915,53.2162,182.7675,84.7169,275.4041,-0.00013138,-2.283e-05,0.0,0 STARLINK-4715,1 53801U 22111AE  23300.71161631 -.00002283  00000-0 -13138-3 0  9994,2 53801  53.2162 182.7675 0001915  84.7169 275.4041 15.07199248 62574,6922.9,95.541,546.091,543.439,0.0
53801.0,STARLINK-4715,PAYLOAD,2023-10-28 08:59:37,15.07197778,0.0001701,53.2158,179.7958,83.2963,276.8222,-6.2756e-05,-1.238e-05,0.0,0 STARLINK-4715,1 53801U 22111AE  23301.37473848 -.00001238  00000-0 -62756-4 0  9993,2 53801  53.2158 179.7958 0001701  83.2963 276.8222 15.07197778 63481,6922.905,95.542,545.947,543.592,0.0
53801.0,STARLINK-4715,PAYLOAD,2023-10-28 20:08:02,15.07203876,0.000163,53.2158,177.7168,82.3799,277.7377,3.7257e-05,2.84e-06,0.0,0 STARLINK-4715,1 53801U 22111AE  23301.83892165  .00000284  00000-0  37257-4 0  9997,2 53801  53.2158 177.7168 0001630  82.3799 277.7377 15.07203876 62746,6922.886,95.541,545.879,543.622,0.0
53801.0,STARLINK-4715,PAYLOAD,2023-10-28 21:43:31,15.07212564,0.0001619,53.215,177.4186,93.4948,266.6229,0.00021416,2.979e-05,0.0,0 STARLINK-4715,1 53801U 22111AE  23301.90523003  .00002979  00000-0  21416-3 0  9999,2 53801  53.2150 177.4186 0001619  93.4948 266.6229 15.07212564 63569,6922.859,95.541,545.845,543.603,0.0
53801.0,STARLINK-4715,PAYLOAD,2023-10-29 08:51:57,15.07208108,0.0001796,53.2149,175.3407,84.5088,275.6108,0.00025448,3.593e-05,0.0,0 STARLINK-4715,1 53801U 22111AE  23302.36941783  .00003593  00000-0  25448-3 0  9991,2 53801  53.2149 175.3407 0001796  84.5088 275.6108 15.07208108 63635,6922.873,95.541,545.981,543.495,0.0
53801.0,STARLINK-4715,PAYLOAD,2023-10-29 21:35:52,15.07211652,0.0001492,53.2149,172.966,87.459,272.6572,0.00031189,4.468e-05,0.0,0 STARLINK-4715,1 53801U 22111AE  23302.89991127  .00004468  00000-0  31189-3 0  9997,2 53801  53.2149 172.9660 0001492  87.4590 272.6572 15.07211652 62901,6922.862,95.541,545.76,543.694,0.0
53801.0,STARLINK-4715,PAYLOAD,2023-10-30 00:46:50,15.0721815,0.0001483,53.2152,172.3726,85.3542,274.7619,0.00043619,6.365e-05,0.0,0 STARLINK-4715,1 53801U 22111AE  23303.03253263  .00006365  00000-0  43619-3 0  9995,2 53801  53.2152 172.3726 0001483  85.3542 274.7619 15.07218150 62923,6922.842,95.54,545.734,543.681,0.0
53801.0,STARLINK-4715,PAYLOAD,2023-10-30 21:28:12,15.07206574,0.0001464,53.2157,168.5139,86.8593,273.2566,0.00010804,1.362e-05,0.0,0 STARLINK-4715,1 53801U 22111AE  23303.89459304  .00001362  00000-0  10804-3 0  9995,2 53801  53.2157 168.5139 0001464  86.8593 273.2566 15.07206574 63860,6922.878,95.541,545.756,543.729,0.0
53801.0,STARLINK-4715,PAYLOAD,2023-10-31 14:58:35,15.07207152,0.0001473,53.2153,165.2493,74.8978,285.2177,0.00018973,2.606e-05,0.0,0 STARLINK-4715,1 53801U 22111AE  23304.62402575  .00002606  00000-0  18973-3 0  9992,2 53801  53.2153 165.2493 0001473  74.8978 285.2177 15.07207152 63973,6922.876,95.541,545.761,543.721,0.0
53801.0,STARLINK-4715,PAYLOAD,2023-10-31 21:20:33,15.0720946,0.0001226,53.2164,164.0594,90.0249,270.0883,0.0002416,3.397e-05,0.0,0 STARLINK-4715,1 53801U 22111AE  23304.88927162  .00003397  00000-0  24160-3 0  9997,2 53801  53.2164 164.0594 0001226  90.0249 270.0883 15.07209460 64017,6922.869,95.541,545.583,543.885,0.0
53801.0,STARLINK-4715,PAYLOAD,2023-11-01 21:12:53,15.07209548,0.0001485,53.2164,159.6052,95.0012,265.1148,0.00020505,2.84e-05,0.0,0 STARLINK-4715,1 53801U 22111AE  23305.88394984  .00002840  00000-0  20505-3 0  9999,2 53801  53.2164 159.6052 0001485  95.0012 265.1148 15.07209548 63358,6922.869,95.541,545.762,543.705,0.0
53801.0,STARLINK-4715,PAYLOAD,2023-11-02 13:07:46,15.07207079,0.0001502,53.2163,156.6357,95.2882,264.8281,6.7729e-05,7.48e-06,0.0,0 STARLINK-4715,1 53801U 22111AE  23306.54706887  .00000748  00000-0  67729-4 0  9997,2 53801  53.2163 156.6357 0001502  95.2882 264.8281 15.07207079 64261,6922.876,95.541,545.781,543.701,0.0
53801.0,STARLINK-4715,PAYLOAD,2023-11-02 21:05:13,15.07205072,0.0001438,53.2167,155.1497,97.3733,262.7422,1.592e-05,-4.1e-07,0.0,0 STARLINK-4715,1 53801U 22111AE  23306.87862934 -.00000041  00000-0  15920-4 0  9992,2 53801  53.2167 155.1497 0001438  97.3733 262.7422 15.07205072 63501,6922.882,95.541,545.743,543.752,0.0
53801.0,STARLINK-4715,PAYLOAD,2023-11-03 13:00:07,15.07208069,0.0001255,53.2164,152.1811,90.1606,269.9529,4.9223e-05,4.66e-06,0.0,0 STARLINK-4715,1 53801U 22111AE  23307.54174892  .00000466  00000-0  49223-4 0  9999,2 53801  53.2164 152.1811 0001255  90.1606 269.9529 15.07208069 64419,6922.873,95.541,545.607,543.869,0.0
53801.0,STARLINK-4715,PAYLOAD,2023-11-03 20:57:33,15.07212286,0.0001255,53.2167,150.6965,96.1928,263.9206,9.4683e-05,1.158e-05,0.0,0 STARLINK-4715,1 53801U 22111AE  23307.87330438  .00001158  00000-0  94683-4 0  9994,2 53801  53.2167 150.6965 0001255  96.1928 263.9206 15.07212286 64465,6922.86,95.541,545.594,543.856,0.0
53801.0,STARLINK-4715,PAYLOAD,2023-11-04 00:08:32,15.07211538,0.0001293,53.2158,150.1023,97.6834,262.4304,0.0001497,1.996e-05,0.0,0 STARLINK-4715,1 53801U 22111AE  23308.00592756  .00001996  00000-0  14970-3 0  9993,2 53801  53.2158 150.1023 0001293  97.6834 262.4304 15.07211538 63673,6922.862,95.541,545.623,543.832,0.0
53801.0,STARLINK-4715,PAYLOAD,2023-11-04 06:30:29,15.07203508,0.0001237,53.2158,148.9145,95.6668,264.4465,-1.8045e-05,-5.58e-06,0.0,0 STARLINK-4715,1 53801U 22111AE  23308.27117884 -.00000558  00000-0 -18045-4 0  9990,2 53801  53.2158 148.9145 0001237  95.6668 264.4465 15.07203508 63717,6922.887,95.541,545.608,543.896,0.0
53801.0,STARLINK-4715,PAYLOAD,2023-11-04 20:49:52,15.07250708,0.0001501,53.2165,146.2419,105.9644,254.1513,-0.00072785,-0.00011359,0.0,0 STARLINK-4715,1 53801U 22111AE  23308.86797257 -.00011359  00000-0 -72785-3 0  9994,2 53801  53.2165 146.2419 0001501 105.9644 254.1513 15.07250708 63807,6922.742,95.538,545.647,543.568,0.0
53801.0,STARLINK-4715,PAYLOAD,2023-11-05 06:22:50,15.07212213,0.0001209,53.2166,144.4605,95.4612,264.6518,0.00015389,2.06e-05,0.0,0 STARLINK-4715,1 53801U 22111AE  23309.26585656  .00002060  00000-0  15389-3 0  9991,2 53801  53.2166 144.4605 0001209  95.4612 264.6518 15.07212213 63864,6922.86,95.541,545.562,543.888,0.0
53801.0,STARLINK-4715,PAYLOAD,2023-11-05 12:44:47,15.07211743,0.0001265,53.216,143.2727,90.1502,269.9635,0.00012219,1.577e-05,0.0,0 STARLINK-4715,1 53801U 22111AE  23309.53110366  .00001577  00000-0  12219-3 0  9994,2 53801  53.2160 143.2727 0001265  90.1502 269.9635 15.07211743 64712,6922.862,95.541,545.603,543.851,0.0
53801.0,STARLINK-4715,PAYLOAD,2023-11-05 20:42:13,15.07229127,0.0001389,53.2159,141.7886,90.988,269.127,0.0005842,8.626e-05,0.0,0 STARLINK-4715,1 53801U 22111AE  23309.86265766  .00008626  00000-0  58420-3 0  9991,2 53801  53.2159 141.7886 0001389  90.9880 269.1270 15.07229127 64760,6922.809,95.54,545.635,543.712,0.0
53801.0,STARLINK-4715,PAYLOAD,2023-11-06 06:15:09,15.07221466,0.0001472,53.2159,140.0067,83.1501,276.9658,0.00035657,5.151e-05,0.0,0 STARLINK-4715,1 53801U 22111AE  23310.26052973  .00005151  00000-0  35657-3 0  9998,2 53801  53.2159 140.0067 0001472  83.1501 276.9658 15.07221466 64012,6922.832,95.54,545.716,543.678,0.0
53801.0,STARLINK-4715,PAYLOAD,2023-11-06 12:37:07,15.07219423,0.0001635,53.2157,138.8205,80.3565,279.7611,0.00032956,4.738e-05,0.0,0 STARLINK-4715,1 53801U 22111AE  23310.52577756  .00004738  00000-0  32956-3 0  9997,2 53801  53.2157 138.8205 0001635  80.3565 279.7611 15.07219423 64862,6922.838,95.54,545.835,543.571,0.0
53801.0,STARLINK-4715,PAYLOAD,2023-11-06 18:59:04,15.07219095,0.0001527,53.2154,137.6318,83.5133,276.6033,0.00026756,3.793e-05,0.0,0 STARLINK-4715,1 53801U 22111AE  23310.79102326  .00003793  00000-0  26756-3 0  9994,2 53801  53.2154 137.6318 0001527  83.5133 276.6033 15.07219095 64091,6922.839,95.54,545.761,543.647,0.0
53801.0,STARLINK-4715,PAYLOAD,2023-11-07 06:07:29,15.07207975,0.0001319,53.2162,135.5527,81.6304,278.4837,2.8976e-05,1.58e-06,0.0,0 STARLINK-4715,1 53801U 22111AE  23311.25520782  .00000158  00000-0  28976-4 0  9995,2 53801  53.2162 135.5527 0001319  81.6304 278.4837 15.07207975 64161,6922.873,95.541,545.651,543.825,0.0
53801.0,STARLINK-4715,PAYLOAD,2023-11-07 12:29:27,15.07197709,0.000176,53.217,134.3666,88.3456,271.7737,-0.00011093,-1.971e-05,0.0,0 STARLINK-4715,1 53801U 22111AE  23311.52046063 -.00001971  00000-0 -11093-3 0  9997,2 53801  53.2170 134.3666 0001760  88.3456 271.7737 15.07197709 65016,6922.905,95.542,545.988,543.551,0.0
53801.0,STARLINK-4715,PAYLOAD,2023-11-07 18:51:25,15.0719395,0.0001388,53.2161,133.1778,86.4828,273.6322,-0.00015095,-2.58e-05,0.0,0 STARLINK-4715,1 53801U 22111AE  23311.78571144 -.00002580  00000-0 -15095-3 0  9991,2 53801  53.2161 133.1778 0001388  86.4828 273.6322 15.07193950 64244,6922.916,95.542,545.742,543.82,0.0
